[{"OBJECT_NAME":"YAOGAN-39 05B","OBJECT_ID":"2023-194B","EPOCH":"2026-03-09T22:41:30.344640","MEAN_MOTION":15.16655635,"ECCENTRICITY":0.00092836,"INCLINATION":34.9938,"RA_OF_ASC_NODE":339.811,"ARG_OF_PERICENTER":155.8155,"MEAN_ANOMALY":204.2995,"EPHEMERIS_TYPE":0,"CLASSIFICATION_TYPE":"U","NORAD_CAT_ID":58558,"ELEMENT_SET_NO":999,"REV_AT_EPOCH":12501,"BSTAR":0.00038892506,"MEAN_MOTION_DOT":7.768e-5,"MEAN_MOTION_DDOT":0},{"OBJECT_NAME":"CO3D 4","OBJECT_ID":"2025-156C","EPOCH":"2026-03-02T06:59:52.721952","MEAN_MOTION":15.20203154,"ECCENTRICITY":2.545e-5,"INCLINATION":97.4334,"RA_OF_ASC_NODE":141.5187,"ARG_OF_PERICENTER":280.3117,"MEAN_ANOMALY":79.8089,"EPHEMERIS_TYPE":0,"CLASSIFICATION_TYPE":"U","NORAD_CAT_ID":64901,"ELEMENT_SET_NO":999,"REV_AT_EPOCH":3329,"BSTAR":6.0250155e-5,"MEAN_MOTION_DOT":1.237e-5,"MEAN_MOTION_DDOT":0}]
